{
  "norad_id": 56338,
  "name": "STARLINK-5554",
  "history": [
    {
      "epoch": "2026-03-28T17:51:58.361472Z",
      "apogee_km": 550.5614155500343,
      "perigee_km": 548.4698186718751,
      "latitude_deg": -4.670010255535745e-05,
      "longitude_deg": -5.228841699704476,
      "height_km": 552.7040069533475,
      "semi_major_axis_km": 6927.652617110954,
      "eccentricity": 0.00015096,
      "inclination_deg": 97.6045,
      "raan_deg": 88.9248,
      "arg_perigee_deg": 96.8993,
      "mean_anomaly_deg": 263.2405,
      "mean_motion_rev_day": 15.05648545
    },
    {
      "epoch": "2026-03-28T22:39:04.257792Z",
      "apogee_km": 550.5351778018485,
      "perigee_km": 548.48182367543,
      "latitude_deg": -3.753306805576836e-05,
      "longitude_deg": -77.00332277895637,
      "height_km": 552.6921924147775,
      "semi_major_axis_km": 6927.645500738639,
      "eccentricity": 0.0001482,
      "inclination_deg": 97.6046,
      "raan_deg": 89.1214,
      "arg_perigee_deg": 96.7619,
      "mean_anomaly_deg": 263.3776,
      "mean_motion_rev_day": 15.05650865
    },
    {
      "epoch": "2026-03-30T00:10:16.000032Z",
      "apogee_km": 550.6137627304752,
      "perigee_km": 548.395116283059,
      "latitude_deg": -5.674046466377696e-05,
      "longitude_deg": -99.80201195234366,
      "height_km": 552.7163335388374,
      "semi_major_axis_km": 6927.641439506767,
      "eccentricity": 0.00016013,
      "inclination_deg": 97.6044,
      "raan_deg": 90.1697,
      "arg_perigee_deg": 97.7329,
      "mean_anomaly_deg": 262.4079,
      "mean_motion_rev_day": 15.05652189
    },
    {
      "epoch": "2026-03-30T12:55:52.472928Z",
      "apogee_km": 550.6029394096522,
      "perigee_km": 548.4362455337914,
      "latitude_deg": 5.113371730238301e-05,
      "longitude_deg": 68.79636396469745,
      "height_km": 552.7195827868862,
      "semi_major_axis_km": 6927.6565924717215,
      "eccentricity": 0.00015638,
      "inclination_deg": 97.6048,
      "raan_deg": 90.6941,
      "arg_perigee_deg": 97.2831,
      "mean_anomaly_deg": 262.8574,
      "mean_motion_rev_day": 15.05647249
    },
    {
      "epoch": "2026-03-30T17:42:58.232736Z",
      "apogee_km": 550.5905844341496,
      "perigee_km": 548.4327604256614,
      "latitude_deg": -2.7770459355673597e-06,
      "longitude_deg": -2.9776380735948464,
      "height_km": 552.6976567023765,
      "semi_major_axis_km": 6927.648672429905,
      "eccentricity": 0.00015574,
      "inclination_deg": 97.6048,
      "raan_deg": 90.8906,
      "arg_perigee_deg": 96.5631,
      "mean_anomaly_deg": 263.5773,
      "mean_motion_rev_day": 15.05649831
    },
    {
      "epoch": "2026-03-31T17:38:28.173984Z",
      "apogee_km": 550.6703764524018,
      "perigee_km": 548.3593117972023,
      "latitude_deg": -1.988546221714921e-05,
      "longitude_deg": -1.852353833175716,
      "height_km": 552.6735281493184,
      "semi_major_axis_km": 6927.651844124802,
      "eccentricity": 0.0001668,
      "inclination_deg": 97.6049,
      "raan_deg": 91.8732,
      "arg_perigee_deg": 94.7765,
      "mean_anomaly_deg": 265.3652,
      "mean_motion_rev_day": 15.05648797
    },
    {
      "epoch": "2026-04-01T17:33:58.314816Z",
      "apogee_km": 550.8079130789629,
      "perigee_km": 548.2460629361976,
      "latitude_deg": -1.8849216859274162e-05,
      "longitude_deg": -0.7276059391177254,
      "height_km": 552.6687466115061,
      "semi_major_axis_km": 6927.66398800758,
      "eccentricity": 0.0001849,
      "inclination_deg": 97.6046,
      "raan_deg": 92.8561,
      "arg_perigee_deg": 93.5633,
      "mean_anomaly_deg": 266.5805,
      "mean_motion_rev_day": 15.05644838
    },
    {
      "epoch": "2026-04-02T17:29:27.843072Z",
      "apogee_km": 550.832430817296,
      "perigee_km": 548.1888404795327,
      "latitude_deg": -2.2935009629589935e-05,
      "longitude_deg": 0.39930158812510375,
      "height_km": 552.6172531310623,
      "semi_major_axis_km": 6927.6476356484145,
      "eccentricity": 0.0001908,
      "inclination_deg": 97.6041,
      "raan_deg": 93.8386,
      "arg_perigee_deg": 91.932,
      "mean_anomaly_deg": 268.2125,
      "mean_motion_rev_day": 15.05650169
    },
    {
      "epoch": "2026-04-02T22:16:33.789504Z",
      "apogee_km": 550.8035243247132,
      "perigee_km": 548.2210352261973,
      "latitude_deg": -1.2482092004337737e-05,
      "longitude_deg": -71.37538881653374,
      "height_km": 552.6268531615179,
      "semi_major_axis_km": 6927.6492797754545,
      "eccentricity": 0.00018639,
      "inclination_deg": 97.6045,
      "raan_deg": 94.0352,
      "arg_perigee_deg": 92.3281,
      "mean_anomaly_deg": 267.8159,
      "mean_motion_rev_day": 15.05649633
    },
    {
      "epoch": "2026-04-03T14:13:34.272192Z",
      "apogee_km": 550.8131926347896,
      "perigee_km": 548.2361025018936,
      "latitude_deg": 2.8921596451701173e-05,
      "longitude_deg": 49.37284576098186,
      "height_km": 552.6334670070041,
      "semi_major_axis_km": 6927.661647568341,
      "eccentricity": 0.000186,
      "inclination_deg": 97.6047,
      "raan_deg": 94.6905,
      "arg_perigee_deg": 92.0775,
      "mean_anomaly_deg": 268.0665,
      "mean_motion_rev_day": 15.05645601
    },
    {
      "epoch": "2026-04-04T14:09:03.932640Z",
      "apogee_km": 550.8042815066101,
      "perigee_km": 548.2161125138073,
      "latitude_deg": -6.267661403465133e-05,
      "longitude_deg": 50.49961117006434,
      "height_km": 552.619261477378,
      "semi_major_axis_km": 6927.647197010208,
      "eccentricity": 0.0001868,
      "inclination_deg": 97.6048,
      "raan_deg": 95.6734,
      "arg_perigee_deg": 92.0793,
      "mean_anomaly_deg": 268.0647,
      "mean_motion_rev_day": 15.05650312
    }
  ]
}